     2.100          NAVIGATION                              RINEX VERSION / TYPE
fic2rin                                 10/10/2012 00:14:21 PGM / RUN BY / DATE
                                                            END OF HEADER
17 12 10  9 14  0  0.0  .893827527761D-04 -.341060513165D-11  .000000000000D+00
     .700000000000D+01 -.779687500000D+02  .442161274935D-08  .202299829059D+01
    -.406801700592D-05  .758790282998D-02  .905431807041D-05  .515375230980D+04
     .223200000000D+06 -.169500708580D-06  .166143106968D+01 -.119209289551D-06
     .963462764320D+00  .208531250000D+03 -.229575037977D+01 -.799176146037D-08
    -.735744932444D-10  .100000000000D+01  .170900000000D+04  .000000000000D+00
     .240000000000D+01  .000000000000D+00 -.107102096081D-07  .700000000000D+01
     .216006000000D+06  .400000000000D+01
18 12 10  9 14  0  0.0  .218860805035D-03  .181898940355D-11  .000000000000D+00
     .102000000000D+03  .150625000000D+02  .527343394541D-08 -.280330026475D+01
     .791624188423D-06  .136374501744D-01  .603310763836D-05  .515373370361D+04
     .223200000000D+06  .128522515297D-06 -.255913904276D+01 -.167638063431D-06
     .928944967932D+00  .244375000000D+03 -.214051199246D+01 -.828677374882D-08
    -.228580949885D-10  .100000000000D+01  .170900000000D+04  .000000000000D+00
     .240000000000D+01  .000000000000D+00 -.107102096081D-07  .102000000000D+03
     .216006000000D+06  .400000000000D+01
19 12 10  9 14  0  0.0 -.311320647597D-03 -.352429196937D-11  .000000000000D+00
     .610000000000D+02 -.586562500000D+02  .460340603605D-08  .120811204066D+01
    -.279210507870D-05  .862712413073D-02  .930763781071D-05  .515363126373D+04
     .223200000000D+06  .130385160446D-07  .171409140263D+01  .113621354103D-06
     .960797479723D+00  .198062500000D+03  .260804946316D+00 -.811676666734D-08
    -.187150652719D-09  .100000000000D+01  .170900000000D+04  .000000000000D+00
     .240000000000D+01  .000000000000D+00 -.149011611938D-07  .610000000000D+02
     .216006000000D+06  .400000000000D+01
20 12 10  9 14  0  0.0  .701015815139D-04  .909494701773D-12  .000000000000D+00
     .700000000000D+02  .161562500000D+02  .536022327481D-08 -.233087258515D+01
     .890344381332D-06  .510272022802D-02  .628456473351D-05  .515361657143D+04
     .223200000000D+06  .484287738800D-07 -.261275945665D+01 -.502914190292D-07
     .929553101515D+00  .242437500000D+03  .127316509936D+01 -.837999191744D-08
    -.109647424398D-09  .100000000000D+01  .170900000000D+04  .000000000000D+00
     .240000000000D+01  .000000000000D+00 -.791624188423D-08  .700000000000D+02
     .216006000000D+06  .400000000000D+01
21 12 10  9 14  0  0.0 -.254802871495D-03 -.238742359215D-11  .000000000000D+00
     .820000000000D+02  .179375000000D+02  .507842582253D-08 -.167284613607D+01
     .838190317154D-06  .193635495380D-01  .864826142788D-05  .515378895950D+04
     .223200000000D+06  .370666384697D-06  .267476695837D+01 -.108033418655D-06
     .931701461083D+00  .193125000000D+03 -.221174127624D+01 -.807462205471D-08
     .202151277555D-09  .100000000000D+01  .170900000000D+04  .000000000000D+00
     .240000000000D+01  .000000000000D+00 -.111758708954D-07  .820000000000D+02
     .216006000000D+06  .400000000000D+01
22 12 10  9 14  0  0.0  .149059109390D-03  .682121026330D-12  .000000000000D+00
     .560000000000D+02  .162187500000D+02  .539201031316D-08  .273218489840D+01
     .787898898125D-06  .627124728635D-02  .599399209023D-05  .515367105865D+04
     .223200000000D+06  .260770320892D-07 -.255604515827D+01 -.670552253723D-07
     .926674874562D+00  .244562500000D+03 -.200657053980D+01 -.842142221461D-08
    -.103575742917D-09  .100000000000D+01  .170900000000D+04  .000000000000D+00
     .240000000000D+01  .000000000000D+00 -.172294676304D-07  .560000000000D+02
     .216006000000D+06  .400000000000D+01
23 12 10  9 14  0  0.0  .156159512699D-03 -.386535248253D-11  .000000000000D+00
     .420000000000D+02  .217187500000D+02  .444161358246D-08  .823546872719D+00
     .121630728245D-05  .824192794971D-02  .872090458870D-05  .515357815361D+04
     .223200000000D+06  .298023223877D-07 -.150419408320D+01  .193715095520D-06
     .958277443873D+00  .209781250000D+03 -.292515680717D+01 -.805604985253D-08
    -.274297139863D-09  .100000000000D+01  .170900000000D+04  .000000000000D+00
     .240000000000D+01  .000000000000D+00 -.200234353542D-07  .420000000000D+02
     .216006000000D+06  .400000000000D+01
25 12 10  9 14  0  0.0  .458252616227D-04  .147792889038D-11  .000000000000D+00
     .530000000000D+02 -.184062500000D+02  .456483300076D-08 -.227145079260D+01
    -.983476638794D-06  .182084925473D-02  .464543700218D-05  .515364860535D+04
     .223200000000D+06  .819563865662D-07  .568166278886D+00 -.391155481339D-07
     .970324801008D+00  .295187500000D+03  .753815704821D+00 -.822962851135D-08
     .132862677121D-09  .100000000000D+01  .170900000000D+04  .000000000000D+00
     .240000000000D+01  .000000000000D+00  .512227416039D-08  .530000000000D+02
     .216006000000D+06  .400000000000D+01
26 12 10  9 14  0  0.0 -.252392143011D-03  .134150468512D-10  .000000000000D+00
     .167000000000D+03  .119062500000D+02  .398266589402D-08  .680052794677D+00
     .629574060440D-06  .208033100935D-01  .952184200287D-05  .515366453934D+04
     .223200000000D+06 -.305473804474D-06 -.142850641759D+01 -.298023223877D-07
     .981450913279D+00  .210750000000D+03  .120855823506D+01 -.814283918194D-08
    -.381087302387D-09  .100000000000D+01  .170900000000D+04  .000000000000D+00
     .340000000000D+01  .000000000000D+00 -.605359673500D-08  .167000000000D+03
     .216006000000D+06  .400000000000D+01
27 12 10  9 14  0  0.0  .440126750618D-03  .409272615798D-11  .000000000000D+00
     .650000000000D+02  .338125000000D+02  .403231081907D-08  .148476562702D+01
     .158697366714D-05  .218340879073D-01  .747106969357D-05  .515367152977D+04
     .223200000000D+06  .482425093651D-06 -.504809785297D+00 -.167638063431D-06
     .982107018871D+00  .242562500000D+03 -.102665631663D+01 -.774139388870D-08
     .111076055335D-09  .100000000000D+01  .170900000000D+04  .000000000000D+00
     .485000000000D+01  .630000000000D+02 -.419095158577D-08  .650000000000D+02
     .216006000000D+06  .400000000000D+01
28 12 10  9 14  0  0.0  .193321611732D-03  .363797880709D-11  .000000000000D+00
     .560000000000D+02 -.359375000000D+02  .427374944739D-08  .268375355295D+01
    -.194460153580D-05  .181422391906D-01  .443682074547D-05  .515363284683D+04
     .223200000000D+06  .143423676491D-06  .628573803193D+00 -.163912773132D-06
     .980613647226D+00  .302718750000D+03 -.181851216616D+01 -.782532595624D-08
    -.110718897601D-10  .100000000000D+01  .170900000000D+04  .000000000000D+00
     .240000000000D+01  .000000000000D+00 -.107102096081D-07  .560000000000D+02
     .216006000000D+06  .400000000000D+01
29 12 10  9 14  0  0.0  .364247243851D-03  .420641299570D-11  .000000000000D+00
     .130000000000D+02 -.592500000000D+02  .445982862691D-08 -.146519879635D+01
    -.316835939884D-05  .178656715434D-02  .836141407490D-05  .515377774620D+04
     .223200000000D+06 -.102445483208D-06  .167008275404D+01 -.298023223877D-07
     .964040769105D+00  .217781250000D+03 -.106595830718D+01 -.805176395972D-08
    -.120004998690D-09  .100000000000D+01  .170900000000D+04  .000000000000D+00
     .240000000000D+01  .000000000000D+00 -.977888703346D-08  .130000000000D+02
     .216006000000D+06  .400000000000D+01
30 12 10  9 14  0  0.0 -.372820999473D-03  .187583282241D-10  .000000000000D+00
     .340000000000D+02 -.195937500000D+02  .475234081121D-08  .188872926717D+01
    -.116229057312D-05  .110981251346D-01  .433996319771D-05  .515372113037D+04
     .223200000000D+06  .143423676491D-06  .476062495605D+00 -.206753611565D-06
     .961539473236D+00  .295468750000D+03  .161161628357D+01 -.817748348215D-08
     .903609067516D-10  .100000000000D+01  .170900000000D+04  .000000000000D+00
     .965000000000D+01  .000000000000D+00 -.419095158577D-08  .340000000000D+02
     .216006000000D+06  .400000000000D+01
31 12 10  9 14  0  0.0  .279609113932D-03  .238742359215D-11  .000000000000D+00
     .550000000000D+02  .476250000000D+02  .410481383912D-08 -.793051656322D+00
     .223144888878D-05  .788104406092D-02  .713579356670D-05  .515374060631D+04
     .223200000000D+06 -.113621354103D-06 -.449342779650D+00 -.391155481339D-07
     .981071432329D+00  .254687500000D+03 -.857674905305D+00 -.800569061201D-08
     .257153568621D-09  .100000000000D+01  .170900000000D+04  .000000000000D+00
     .340000000000D+01  .000000000000D+00 -.135041773319D-07  .550000000000D+02
     .216006000000D+06  .400000000000D+01
32 12 10  9 14  0  0.0 -.496416818351D-03 -.386535248253D-11  .000000000000D+00
     .670000000000D+02  .107812500000D+02  .499235080859D-08 -.189586842150D+00
     .447034835815D-06  .118259178707D-01  .658258795738D-05  .515355302620D+04
     .223200000000D+06  .121071934700D-06 -.247769007367D+01 -.197440385818D-06
     .950839115477D+00  .250093750000D+03 -.501504794419D+00 -.842535094969D-08
    -.182150444440D-09  .100000000000D+01  .170900000000D+04  .000000000000D+00
     .240000000000D+01  .000000000000D+00 -.325962901115D-08  .670000000000D+02
     .216006000000D+06  .400000000000D+01
16 12 10  9 13 59 44.0 -.247607473284D-03 -.682121026330D-12  .000000000000D+00
     .210000000000D+02 -.313125000000D+02  .432660879205D-08  .293142796540D+01
    -.153481960297D-05  .653697503731D-02  .507198274136D-05  .515375851822D+04
     .223184000000D+06 -.150874257088D-06  .622025925237D+00 -.260770320892D-07
     .982225875113D+00  .293656250000D+03  .298891513803D-01 -.797140346952D-08
     .710743891050D-10  .100000000000D+01  .170900000000D+04  .000000000000D+00
     .240000000000D+01  .000000000000D+00 -.977888703346D-08  .210000000000D+02
     .216846000000D+06  .400000000000D+01
